OBJECT_NAME,OBJECT_ID,EPOCH,MEAN_MOTION,ECCENTRICITY,INCLINATION,RA_OF_ASC_NODE,ARG_OF_PERICENTER,MEAN_ANOMALY,EPHEMERIS_TYPE,CLASSIFICATION_TYPE,NORAD_CAT_ID,ELEMENT_SET_NO,REV_AT_EPOCH,BSTAR,MEAN_MOTION_DOT,MEAN_MOTION_DDOT
STARLINK-6041,2023-064AG,2026-07-08T16:29:43.653984,14.98331976,.00039027,69.9993,179.3718,267.7044,92.3668,0,U,56478,999,17386,-.10095163E-4,-.214E-5,0
STARLINK-6044,2023-064AH,2026-07-09T15:55:42.506688,14.98325459,.00033898,70.0007,176.7584,269.4930,90.5841,0,U,56479,999,17401,.57214421E-4,.59E-5,0
STARLINK-6214,2023-064AJ,2026-07-09T05:34:35.534208,15.37180990,.00042535,69.9903,130.4649,264.0025,96.0669,0,U,56480,999,17513,.27382588E-3,.9874E-4,0
STARLINK-6222,2023-064AK,2026-07-10T22:34:12.605952,14.98363848,.0003482,69.9995,173.5896,265.5482,94.5280,0,U,56481,999,17420,.34917E-3,.4079E-4,0
STARLINK-6220,2023-064AL,2026-07-10T08:27:04.546080,14.98333285,.00031231,69.9999,175.1491,271.4236,88.6565,0,U,56482,999,17411,-.26034094E-4,-.404E-5,0
STARLINK-5868,2023-064AM,2026-07-09T16:19:43.331232,14.98331270,.00040403,70.0026,176.8133,265.2793,94.7904,0,U,56483,999,17401,.29221667E-4,.256E-5,0
STARLINK-6221,2023-064AN,2026-07-09T09:49:10.589376,14.98331568,.00035602,69.9997,177.4756,265.2960,94.7793,0,U,56484,999,17396,.34988219E-4,.324E-5,0
STARLINK-6210,2023-064AP,2026-07-10T19:03:57.721248,14.98323640,.0003511,69.9984,173.8814,268.7588,91.3169,0,U,56485,999,17418,.22343E-4,.173E-5,0
STARLINK-6196,2023-064AR,2026-07-10T07:26:40.847136,14.98327813,.00029684,69.9993,155.1370,270.3190,89.7629,0,U,56487,999,17460,.83887352E-4,.908E-5,0
STARLINK-6204,2023-064AS,2026-07-09T14:49:18.431616,14.98325564,.00030647,69.9987,157.1305,268.6960,91.3848,0,U,56488,999,17449,.38984211E-4,.372E-5,0
STARLINK-5923,2023-064AT,2026-07-10T08:08:45.227904,14.98330220,.00027585,69.9992,155.2345,274.4059,85.6785,0,U,56489,999,17460,.75222442E-4,.805E-5,0
STARLINK-5873,2023-064AU,2026-07-10T07:02:38.557248,14.98333457,.00034903,69.9998,155.4750,265.9056,94.1704,0,U,56490,999,17459,.43393234E-4,.425E-5,0
STARLINK-5842,2023-064AV,2026-07-10T08:02:44.586528,14.98326549,.00031329,69.9992,155.2197,268.6297,91.4503,0,U,56491,999,17460,.39513691E-4,.378E-5,0
STARLINK-5846,2023-064AW,2026-07-09T07:54:41.906016,14.98328919,.00032117,69.9982,157.7307,266.7879,93.2912,0,U,56492,999,17445,.36987072E-4,.348E-5,0
STARLINK-5841,2023-064AX,2026-07-10T22:03:33.733152,14.98334279,.0002889,70.0007,133.7649,270.4964,89.5864,0,U,56493,999,17518,.61799E-4,.645E-5,0
STARLINK-5530,2023-064AY,2026-07-08T22:18:07.645824,14.98328258,.00034656,69.9998,158.7402,265.4694,94.6069,0,U,56494,999,17438,.6000496E-5,-.21E-6,0
STARLINK-5529,2023-064AZ,2026-07-09T15:43:20.746272,14.98355732,.00032548,69.9990,156.8586,271.5402,88.5384,0,U,56495,999,17450,-.29786779E-3,-.3648E-4,0
STARLINK-5526,2023-064BA,2026-07-10T07:38:39.257952,14.98338182,.00043445,69.9976,155.1611,264.0076,96.0588,0,U,56496,999,17460,.96367193E-4,.1057E-4,0
STARLINK-5527,2023-064BB,2026-07-11T00:00:02.000160,14.98359563,.0003822,70.0009,153.4189,261.6261,195.0229,0,U,56497,999,532,-.35204E-2,-.41882E-3,0
STARLINK-5522,2023-064BC,2026-07-09T07:48:41.621472,14.98322016,.00032267,70.0006,157.7152,268.6900,91.3889,0,U,56498,999,17445,.36375711E-4,.341E-5,0
STARLINK-5775,2023-065A,2026-07-10T15:01:47.223264,15.27578461,.0001287,43.0017,238.0081,272.5157,87.5547,0,U,56503,999,17540,.37378E-4,.767E-5,0
STARLINK-5716,2023-065B,2026-07-11T03:55:24.730752,15.27566349,.0000393,42.9994,235.1554,156.4217,203.6653,0,U,56504,999,17548,-.42407E-4,-.1428E-4,0
STARLINK-5763,2023-065C,2026-07-11T04:32:23.796384,15.27589619,.0001636,43.0033,235.3476,277.3001,82.7665,0,U,56505,999,17548,.56577E-4,.1295E-4,0
STARLINK-5340,2023-065D,2026-07-10T10:50:47.314464,15.27573574,.00014025,43.0018,227.9658,276.1762,83.8930,0,U,56506,999,17550,-.38606862E-4,-.1324E-4,0
STARLINK-5333,2023-065E,2026-07-11T01:24:18.299232,15.27593952,.0001547,43.0006,203.0052,262.8197,97.2479,0,U,56507,999,17584,.17816E-4,.228E-5,0
STARLINK-5335,2023-065F,2026-07-11T03:14:41.096832,15.27588180,.0001272,42.9987,234.9401,221.7629,138.3125,0,U,56508,999,17548,.34962E-5,-.166E-5,0
STARLINK-5334,2023-065G,2026-07-11T03:31:20.179776,15.27573042,.0001467,43.0012,235.0275,271.6378,88.4305,0,U,56509,999,17548,-.61074E-6,-.279E-5,0
STARLINK-5339,2023-065H,2026-07-10T03:47:54.393216,15.27565186,.0001325,43.0013,240.5164,265.5001,94.5699,0,U,56510,999,17533,-.37498E-4,-.1293E-4,0
STARLINK-5351,2023-065J,2026-07-10T04:08:14.954784,15.27578640,.00011048,43.0004,240.6098,269.9420,90.1305,0,U,56511,999,17533,.3669764E-4,.748E-5,0
STARLINK-5349,2023-065K,2026-07-11T03:25:46.907328,15.27574880,.0001187,43.0001,234.9918,269.6721,90.3994,0,U,56512,999,17548,.33403E-5,-.17E-5,0
