STARLINK-6041           
1 56478U 23064AG  26189.68731081 -.00000214  00000+0 -10095-4 0  9992
2 56478  69.9993 179.3718 0003902 267.7044  92.3668 14.98331976173867
STARLINK-6044           
1 56479U 23064AH  26190.66368642  .00000590  00000+0  57214-4 0  9991
2 56479  70.0007 176.7584 0003389 269.4930  90.5841 14.98325459174011
STARLINK-6214           
1 56480U 23064AJ  26190.23235572  .00009874  00000+0  27383-3 0  9998
2 56480  69.9903 130.4649 0004253 264.0025  96.0669 15.37180990175137
STARLINK-6222           
1 56481U 23064AK  26191.94042368  .00004079  00000+0  34917-3 0  9990
2 56481  69.9995 173.5896 0003482 265.5482  94.5280 14.98363848174207
STARLINK-6220           
1 56482U 23064AL  26191.35213595 -.00000404  00000+0 -26034-4 0  9990
2 56482  69.9999 175.1491 0003123 271.4236  88.6565 14.98333285174118
STARLINK-5868           
1 56483U 23064AM  26190.68036263  .00000256  00000+0  29222-4 0  9996
2 56483  70.0026 176.8133 0004040 265.2793  94.7904 14.98331270174018
STARLINK-6221           
1 56484U 23064AN  26190.40915034  .00000324  00000+0  34988-4 0  9990
2 56484  69.9997 177.4756 0003560 265.2960  94.7793 14.98331568173962
STARLINK-6210           
1 56485U 23064AP  26191.79441807  .00000173  00000+0  22343-4 0  9990
2 56485  69.9984 173.8814 0003511 268.7588  91.3169 14.98323640174181
STARLINK-6196           
1 56487U 23064AR  26191.31019499  .00000908  00000+0  83887-4 0  9994
2 56487  69.9993 155.1370 0002968 270.3190  89.7629 14.98327813174601
STARLINK-6204           
1 56488U 23064AS  26190.61757444  .00000372  00000+0  38984-4 0  9999
2 56488  69.9987 157.1305 0003064 268.6960  91.3848 14.98325564174498
STARLINK-5923           
1 56489U 23064AT  26191.33941236  .00000805  00000+0  75222-4 0  9991
2 56489  69.9992 155.2345 0002758 274.4059  85.6785 14.98330220174605
STARLINK-5873           
1 56490U 23064AU  26191.29350182  .00000425  00000+0  43393-4 0  9994
2 56490  69.9998 155.4750 0003490 265.9056  94.1704 14.98333457174590
STARLINK-5842           
1 56491U 23064AV  26191.33523827  .00000378  00000+0  39514-4 0  9995
2 56491  69.9992 155.2197 0003132 268.6297  91.4503 14.98326549174601
STARLINK-5846           
1 56492U 23064AW  26190.32965169  .00000348  00000+0  36987-4 0  9991
2 56492  69.9982 157.7307 0003211 266.7879  93.2912 14.98328919174454
STARLINK-5841           
1 56493U 23064AX  26191.91914043  .00000645  00000+0  61799-4 0  9992
2 56493  70.0007 133.7649 0002889 270.4964  89.5864 14.98334279175187
STARLINK-5530           
1 56494U 23064AY  26189.92925516 -.00000021  00000+0  60005-5 0  9997
2 56494  69.9998 158.7402 0003465 265.4694  94.6069 14.98328258174388
STARLINK-5529           
1 56495U 23064AZ  26190.65510123 -.00003648  00000+0 -29787-3 0  9993
2 56495  69.9990 156.8586 0003254 271.5402  88.5384 14.98355732174507
STARLINK-5526           
1 56496U 23064BA  26191.31850993  .00001057  00000+0  96367-4 0  9999
2 56496  69.9976 155.1611 0004344 264.0076  96.0588 14.98338182174609
STARLINK-5527           
1 56497U 23064BB  26192.00002315 -.00041882  00000+0 -35204-2 0  9997
2 56497  70.0009 153.4189 0003822 261.6261 195.0229 14.98359563  5320
STARLINK-5522           
1 56498U 23064BC  26190.32548173  .00000341  00000+0  36376-4 0  9994
2 56498  70.0006 157.7152 0003226 268.6900  91.3889 14.98322016174454
STARLINK-5775           
1 56503U 23065A   26191.62624101  .00000767  00000+0  37378-4 0  9997
2 56503  43.0017 238.0081 0001287 272.5157  87.5547 15.27578461175404
STARLINK-5716           
1 56504U 23065B   26192.16348068 -.00001428  00000+0 -42407-4 0  9999
2 56504  42.9994 235.1554 0000393 156.4217 203.6653 15.27566349175483
STARLINK-5763           
1 56505U 23065C   26192.18916431  .00001295  00000+0  56577-4 0  9990
2 56505  43.0033 235.3476 0001636 277.3001  82.7665 15.27589619175484
STARLINK-5340           
1 56506U 23065D   26191.45193651 -.00001324  00000+0 -38607-4 0  9990
2 56506  43.0018 227.9658 0001402 276.1762  83.8930 15.27573574175502
STARLINK-5333           
1 56507U 23065E   26192.05854513  .00000228  00000+0  17816-4 0  9998
2 56507  43.0006 203.0052 0001547 262.8197  97.2479 15.27593952175843
STARLINK-5335           
1 56508U 23065F   26192.13519788 -.00000166  00000+0  34962-5 0  9994
2 56508  42.9987 234.9401 0001272 221.7629 138.3125 15.27588180175482
STARLINK-5334           
1 56509U 23065G   26192.14676134 -.00000279  00000+0 -61074-6 0  9996
2 56509  43.0012 235.0275 0001467 271.6378  88.4305 15.27573042175482
STARLINK-5339           
1 56510U 23065H   26191.15826844 -.00001293  00000+0 -37498-4 0  9991
2 56510  43.0013 240.5164 0001325 265.5001  94.5699 15.27565186175339
STARLINK-5351           
1 56511U 23065J   26191.17239531  .00000748  00000+0  36698-4 0  9998
2 56511  43.0004 240.6098 0001104 269.9420  90.1305 15.27578640175330
STARLINK-5349           
1 56512U 23065K   26192.14290402 -.00000170  00000+0  33403-5 0  9993
2 56512  43.0001 234.9918 0001187 269.6721  90.3994 15.27574880175481
